[Satellite]
VERSION=1.1
NAME=CZ-4B R/B
NICKNAME=CZ-4B R/B
TLE1=1 28415U 04035C   19316.88647791 -.00000097  00000-0 -19624-5 0  9997
TLE2=2 28415  97.6445 355.4665 0052082  15.5181 344.7628 15.06758213830877
STATUS=0
